{"type": "FeatureCollection", "features": [ {"type": "Feature", "properties": {"norad_id": 35701, "name": "COSMOS 2251 DEB", "group": "cosmos-2251-debris", "lat": -39.35963153393873, "lon": 141.594192755289, "alt_km": 865.9043330092127, "timestamp": "2025-12-09T09:46:48.042270+00:00", "meta": {"OBJECT_NAME": "COSMOS 2251 DEB", "OBJECT_ID": "1993-036APW", "EPOCH": "2025-12-06T05:57:57.623904", "MEAN_MOTION": 13.80843435, "ECCENTRICITY": 0.02897209, "INCLINATION": 74.0028, "RA_OF_ASC_NODE": 313.2955, "ARG_OF_PERICENTER": 164.0681, "MEAN_ANOMALY": 196.98, "EPHEMERIS_TYPE": 0, "CLASSIFICATION_TYPE": "U", "NORAD_CAT_ID": 35701, "ELEMENT_SET_NO": 999, "REV_AT_EPOCH": 62069, "BSTAR": 0.0021223911, "MEAN_MOTION_DOT": 3.05e-05, "MEAN_MOTION_DDOT": 0}, "tle": {"line1": "1 35701U 93036APW 25340.24858361  .00003050  00000+0  21224-2 0  9998", "line2": "2 35701  74.0028 313.2955 0289720 164.0681 196.9800 13.80843435620696"}}, "geometry": {"type": "Point", "coordinates": [141.594192755289, -39.35963153393873]}}, {"type": "Feature", "properties": {"norad_id": 35703, "name": "COSMOS 2251 DEB", "group": "cosmos-2251-debris", "lat": 3.4463569796198303, "lon": 50.42206439454536, "alt_km": 619.4599065388047, "timestamp": "2025-12-09T09:46:48.042280+00:00", "meta": {"OBJECT_NAME": "COSMOS 2251 DEB", "OBJECT_ID": "1993-036APY", "EPOCH": "2025-12-08T11:12:28.770624", "MEAN_MOTION": 14.90258753, "ECCENTRICITY": 0.00649106, "INCLINATION": 74.042, "RA_OF_ASC_NODE": 51.3159, "ARG_OF_PERICENTER": 122.6243, "MEAN_ANOMALY": 238.1226, "EPHEMERIS_TYPE": 0, "CLASSIFICATION_TYPE": "U", "NORAD_CAT_ID": 35703, "ELEMENT_SET_NO": 999, "REV_AT_EPOCH": 66552, "BSTAR": 0.00096315421, "MEAN_MOTION_DOT": 9.705e-05, "MEAN_MOTION_DDOT": 0}, "tle": {"line1": "1 35703U 93036APY 25342.46699966  .00009705  00000+0  96315-3 0  9997", "line2": "2 35703  74.0420  51.3159 0064910 122.6243 238.1226 14.90258753665523"}}, "geometry": {"type": "Point", "coordinates": [50.42206439454536, 3.4463569796198303]}}, {"type": "Feature", "properties": {"norad_id": 35705, "name": "COSMOS 2251 DEB", "group": "cosmos-2251-debris", "lat": 3.3606862045854786, "lon": 143.15517703643778, "alt_km": 657.9490118548665, "timestamp": "2025-12-09T09:46:48.042291+00:00", "meta": {"OBJECT_NAME": "COSMOS 2251 DEB", "OBJECT_ID": "1993-036AQA", "EPOCH": "2025-12-03T05:18:59.084352", "MEAN_MOTION": 14.71707631, "ECCENTRICITY": 0.0034156, "INCLINATION": 74.2742, "RA_OF_ASC_NODE": 154.0557, "ARG_OF_PERICENTER": 110.0272, "MEAN_ANOMALY": 250.4584, "EPHEMERIS_TYPE": 0, "CLASSIFICATION_TYPE": "U", "NORAD_CAT_ID": 35705, "ELEMENT_SET_NO": 999, "REV_AT_EPOCH": 85786, "BSTAR": 0.0035867, "MEAN_MOTION_DOT": 0.00022615, "MEAN_MOTION_DDOT": 0}, "tle": {"line1": "1 35705U 93036AQA 25337.22151718  .00022615  00000+0  35867-2 0  9994", "line2": "2 35705  74.2742 154.0557 0034156 110.0272 250.4584 14.71707631857866"}}, "geometry": {"type": "Point", "coordinates": [143.15517703643778, 3.3606862045854786]}}, {"type": "Feature", "properties": {"norad_id": 35706, "name": "COSMOS 2251 DEB", "group": "cosmos-2251-debris", "lat": 72.66933474824076, "lon": -179.5308139227391, "alt_km": 772.4025929646041, "timestamp": "2025-12-09T09:46:48.042301+00:00", "meta": {"OBJECT_NAME": "COSMOS 2251 DEB", "OBJECT_ID": "1993-036AQB", "EPOCH": "2025-12-07T23:55:20.458848", "MEAN_MOTION": 13.65907522, "ECCENTRICITY": 0.0341168, "INCLINATION": 73.8893, "RA_OF_ASC_NODE": 70.6438, "ARG_OF_PERICENTER": 121.3453, "MEAN_ANOMALY": 242.1528, "EPHEMERIS_TYPE": 0, "CLASSIFICATION_TYPE": "U", "NORAD_CAT_ID": 35706, "ELEMENT_SET_NO": 999, "REV_AT_EPOCH": 61997, "BSTAR": 0.0014535602, "MEAN_MOTION_DOT": 1.759e-05, "MEAN_MOTION_DDOT": 0}, "tle": {"line1": "1 35706U 93036AQB 25341.99676457  .00001759  00000+0  14536-2 0  9992", "line2": "2 35706  73.8893  70.6438 0341168 121.3453 242.1528 13.65907522619977"}}, "geometry": {"type": "Point", "coordinates": [-179.5308139227391, 72.66933474824076]}}, {"type": "Feature", "properties": {"norad_id": 35711, "name": "COSMOS 2251 DEB", "group": "cosmos-2251-debris", "lat": 71.02690480231416, "lon": -76.86095409990354, "alt_km": 694.9388809041693, "timestamp": "2025-12-09T09:46:48.042312+00:00", "meta": {"OBJECT_NAME": "COSMOS 2251 DEB", "OBJECT_ID": "1993-036AQG", "EPOCH": "2025-12-07T22:58:27.397056", "MEAN_MOTION": 14.63780346, "ECCENTRICITY": 0.00852914, "INCLINATION": 74.0511, "RA_OF_ASC_NODE": 229.6371, "ARG_OF_PERICENTER": 331.7264, "MEAN_ANOMALY": 27.9286, "EPHEMERIS_TYPE": 0, "CLASSIFICATION_TYPE": "U", "NORAD_CAT_ID": 35711, "ELEMENT_SET_NO": 999, "REV_AT_EPOCH": 87701, "BSTAR": 0.00039815854, "MEAN_MOTION_DOT": 2.156e-05, "MEAN_MOTION_DDOT": 0}, "tle": {"line1": "1 35711U 93036AQG 25341.95726154  .00002156  00000+0  39816-3 0  9995", "line2": "2 35711  74.0511 229.6371 0085291 331.7264  27.9286 14.63780346877017"}}, "geometry": {"type": "Point", "coordinates": [-76.86095409990354, 71.02690480231416]}}, {"type": "Feature", "properties": {"norad_id": 35716, "name": "COSMOS 2251 DEB", "group": "cosmos-2251-debris", "lat": -22.197161553254066, "lon": 27.306483026995675, "alt_km": 756.962471421326, "timestamp": "2025-12-09T09:46:48.042322+00:00", "meta": {"OBJECT_NAME": "COSMOS 2251 DEB", "OBJECT_ID": "1993-036AQM", "EPOCH": "2025-12-08T21:25:01.072128", "MEAN_MOTION": 14.60079471, "ECCENTRICITY": 0.0088565, "INCLINATION": 73.9928, "RA_OF_ASC_NODE": 201.5651, "ARG_OF_PERICENTER": 43.5173, "MEAN_ANOMALY": 332.6319, "EPHEMERIS_TYPE": 0, "CLASSIFICATION_TYPE": "U", "NORAD_CAT_ID": 35716, "ELEMENT_SET_NO": 999, "REV_AT_EPOCH": 87571, "BSTAR": 0.0001686, "MEAN_MOTION_DOT": 8.24e-06, "MEAN_MOTION_DDOT": 0}, "tle": {"line1": "1 35716U 93036AQM 25342.89237352  .00000824  00000+0  16860-3 0  9995", "line2": "2 35716  73.9928 201.5651 0088565  43.5173 332.6319 14.60079471875711"}}, "geometry": {"type": "Point", "coordinates": [27.306483026995675, -22.197161553254066]}}, {"type": "Feature", "properties": {"norad_id": 35717, "name": "COSMOS 2251 DEB", "group": "cosmos-2251-debris", "lat": -48.84606258431742, "lon": 62.54768951459108, "alt_km": 816.0840211498817, "timestamp": "2025-12-09T09:46:48.042333+00:00", "meta": {"OBJECT_NAME": "COSMOS 2251 DEB", "OBJECT_ID": "1993-036AQN", "EPOCH": "2025-12-08T11:00:53.829504", "MEAN_MOTION": 14.38444389, "ECCENTRICITY": 0.00767393, "INCLINATION": 74.16, "RA_OF_ASC_NODE": 225.3267, "ARG_OF_PERICENTER": 86.192, "MEAN_ANOMALY": 274.8004, "EPHEMERIS_TYPE": 0, "CLASSIFICATION_TYPE": "U", "NORAD_CAT_ID": 35717, "ELEMENT_SET_NO": 999, "REV_AT_EPOCH": 74038, "BSTAR": 0.0017775827, "MEAN_MOTION_DOT": 5.593e-05, "MEAN_MOTION_DDOT": 0}, "tle": {"line1": "1 35717U 93036AQN 25342.45895636  .00005593  00000+0  17776-2 0  9997", "line2": "2 35717  74.1600 225.3267 0076739  86.1920 274.8004 14.38444389740383"}}, "geometry": {"type": "Point", "coordinates": [62.54768951459108, -48.84606258431742]}}, {"type": "Feature", "properties": {"norad_id": 35718, "name": "COSMOS 2251 DEB", "group": "cosmos-2251-debris", "lat": -25.74186277692319, "lon": 128.4832619646992, "alt_km": 677.8484756999578, "timestamp": "2025-12-09T09:46:48.042343+00:00", "meta": {"OBJECT_NAME": "COSMOS 2251 DEB", "OBJECT_ID": "1993-036AQP", "EPOCH": "2025-12-07T03:56:54.575520", "MEAN_MOTION": 14.6849943, "ECCENTRICITY": 0.00115176, "INCLINATION": 74.0311, "RA_OF_ASC_NODE": 140.7573, "ARG_OF_PERICENTER": 190.0209, "MEAN_ANOMALY": 170.0733, "EPHEMERIS_TYPE": 0, "CLASSIFICATION_TYPE": "U", "NORAD_CAT_ID": 35718, "ELEMENT_SET_NO": 999, "REV_AT_EPOCH": 65758, "BSTAR": 0.0025274033, "MEAN_MOTION_DOT": 0.00014666, "MEAN_MOTION_DDOT": 0}, "tle": {"line1": "1 35718U 93036AQP 25341.16452055  .00014666  00000+0  25274-2 0  9992", "line2": "2 35718  74.0311 140.7573 0011517 190.0209 170.0733 14.68499430657585"}}, "geometry": {"type": "Point", "coordinates": [128.4832619646992, -25.74186277692319]}}, {"type": "Feature", "properties": {"norad_id": 35721, "name": "COSMOS 2251 DEB", "group": "cosmos-2251-debris", "lat": 43.67168940637196, "lon": -160.1665555228899, "alt_km": 745.3068664816656, "timestamp": "2025-12-09T09:46:48.042353+00:00", "meta": {"OBJECT_NAME": "COSMOS 2251 DEB", "OBJECT_ID": "1993-036AQS", "EPOCH": "2025-11-29T21:54:16.243200", "MEAN_MOTION": 14.34192363, "ECCENTRICITY": 0.01464404, "INCLINATION": 73.9503, "RA_OF_ASC_NODE": 201.3539, "ARG_OF_PERICENTER": 350.3358, "MEAN_ANOMALY": 9.498, "EPHEMERIS_TYPE": 0, "CLASSIFICATION_TYPE": "U", "NORAD_CAT_ID": 35721, "ELEMENT_SET_NO": 999, "REV_AT_EPOCH": 57605, "BSTAR": 0.0014885779, "MEAN_MOTION_DOT": 4.68e-05, "MEAN_MOTION_DDOT": 0}, "tle": {"line1": "1 35721U 93036AQS 25333.91268800  .00004680  00000+0  14886-2 0  9995", "line2": "2 35721  73.9503 201.3539 0146440 350.3358   9.4980 14.34192363576055"}}, "geometry": {"type": "Point", "coordinates": [-160.1665555228899, 43.67168940637196]}}, {"type": "Feature", "properties": {"norad_id": 35724, "name": "COSMOS 2251 DEB", "group": "cosmos-2251-debris", "lat": 56.918188635058534, "lon": -24.90395878094744, "alt_km": 662.598263711372, "timestamp": "2025-12-09T09:46:48.042364+00:00", "meta": {"OBJECT_NAME": "COSMOS 2251 DEB", "OBJECT_ID": "1993-036AQV", "EPOCH": "2025-12-08T21:58:40.520064", "MEAN_MOTION": 14.58181978, "ECCENTRICITY": 0.0058948, "INCLINATION": 74.032, "RA_OF_ASC_NODE": 309.9574, "ARG_OF_PERICENTER": 104.7412, "MEAN_ANOMALY": 256.0295, "EPHEMERIS_TYPE": 0, "CLASSIFICATION_TYPE": "U", "NORAD_CAT_ID": 35724, "ELEMENT_SET_NO": 999, "REV_AT_EPOCH": 87473, "BSTAR": 0.00038878, "MEAN_MOTION_DOT": 1.807e-05, "MEAN_MOTION_DDOT": 0}, "tle": {"line1": "1 35724U 93036AQV 25342.91574676  .00001807  00000+0  38878-3 0  9995", "line2": "2 35724  74.0320 309.9574 0058948 104.7412 256.0295 14.58181978874739"}}, "geometry": {"type": "Point", "coordinates": [-24.90395878094744, 56.918188635058534]}}]}